{"type" : "FeatureCollection", "features" : [{"type" : "Feature", "geometry" : {"type":"MultiPolygon","coordinates":[[[[-79.3963414,43.6601877],[-79.3956521,43.6603351],[-79.3956508,43.660324],[-79.395434,43.659782],[-79.3962846,43.6595841],[-79.3964044,43.6598633],[-79.3964984,43.6600994],[-79.3963274,43.6601406],[-79.3963414,43.6601877]],[[-79.3961512,43.6600133],[-79.3961462,43.6600013],[-79.3961206,43.6600068],[-79.396106,43.6599715],[-79.3960666,43.65998],[-79.3960319,43.6598956],[-79.3960714,43.6598871],[-79.3960563,43.6598505],[-79.396082,43.659845],[-79.3960782,43.6598357],[-79.3957762,43.6599007],[-79.3958492,43.6600783],[-79.3961512,43.6600133]]]]}, "properties" : {"name" : "Galbraith Building", "other_tags" : {"operator": "University of Toronto", "addr:city": "Toronto", "department": "Faculty of Applied Science and Engineering", "addr:street": "St George Street", "name:etymology": "John Galbraith", "building:levels": "4", "addr:housenumber": "35", "name:etymology:wikidata": "Q98518268"}, "type" : "Polygon"}}, {"type" : "Feature", "geometry" : {"type":"MultiPolygon","coordinates":[[[[-79.3972047,43.6587492],[-79.3965308,43.6588831],[-79.3968093,43.6595842],[-79.3968596,43.6595734],[-79.3972304,43.6594941],[-79.3971947,43.6594068],[-79.3971293,43.6594208],[-79.3970806,43.6593018],[-79.3972152,43.6592697],[-79.3971898,43.6592085],[-79.3972543,43.6591949],[-79.3972087,43.6590793],[-79.3971486,43.6590917],[-79.3971334,43.6590554],[-79.397163,43.6590499],[-79.397167,43.6590578],[-79.3972583,43.6590384],[-79.397201,43.6589063],[-79.3972683,43.6588918],[-79.3972047,43.6587492]]]]}, "properties" : {"name" : "Koffler Student Services Centre", "other_tags" : {"operator": "University of Toronto", "wikidata": "Q12061031", "addr:city": "Toronto", "wikipedia": "en:Koffler Student Centre", "addr:street": "St George Street", "description": "Student services & U of T Bookstore", "addr:postcode": "M5T 2Z9", "addr:housenumber": "214"}, "type" : "Polygon"}}, {"type" : "Feature", "geometry" : {"type":"MultiPolygon","coordinates":[[[[-79.4009721,43.6593216],[-79.4009199,43.659333],[-79.4008713,43.6593437],[-79.4008785,43.6593608],[-79.4007223,43.6593961],[-79.4007141,43.6593739],[-79.4006577,43.6593858],[-79.4006518,43.6593709],[-79.4006106,43.6593795],[-79.4005681,43.6593884],[-79.4005741,43.6594036],[-79.400524,43.6594142],[-79.4005313,43.6594356],[-79.4003782,43.6594665],[-79.4003712,43.659448],[-79.4003148,43.6594604],[-79.4002658,43.6594711],[-79.4003333,43.6596416],[-79.4003462,43.6596759],[-79.4002386,43.6596985],[-79.4002588,43.6597483],[-79.400282,43.6598038],[-79.4003974,43.6597802],[-79.4004038,43.6597955],[-79.4003375,43.6598256],[-79.4003586,43.6598385],[-79.4004434,43.6598901],[-79.4004582,43.6599271],[-79.4004621,43.6599359],[-79.4004786,43.6599766],[-79.4007039,43.6599283],[-79.4007555,43.6599172],[-79.4007697,43.6599142],[-79.4008896,43.6598884],[-79.400903,43.6598856],[-79.4009491,43.6598757],[-79.4011454,43.6598337],[-79.4011255,43.6597775],[-79.4011188,43.6597611],[-79.4011142,43.6597499],[-79.4010809,43.6596688],[-79.4010737,43.6596511],[-79.4010671,43.6596351],[-79.4011844,43.6596097],[-79.4011655,43.6595637],[-79.4011505,43.659527],[-79.4010635,43.659545],[-79.4009721,43.6593216]]]]}, "properties" : {"name" : "Daniels Building", "other_tags" : {"faculty": "architecture", "old_name": "Knox College", "operator": "University of Toronto", "wikidata": "Q2813519", "addr:city": "Toronto", "wikipedia": "en:1 Spadina Crescent", "addr:street": "Spadina Crescent", "addr:housenumber": "1"}, "type" : "Polygon"}}, {"type" : "Feature", "geometry" : {"type":"MultiPolygon","coordinates":[[[[-79.3911639,43.6595684],[-79.3911629,43.6595612],[-79.3911586,43.6595317],[-79.3911489,43.659498],[-79.3911456,43.6594865],[-79.391132,43.6594445],[-79.3911156,43.6594089],[-79.3911057,43.6593883],[-79.3910984,43.6593762],[-79.3910805,43.6593481],[-79.3910456,43.6593004],[-79.3910066,43.6592567],[-79.390975,43.6592275],[-79.390961,43.6592146],[-79.3909467,43.6592031],[-79.3909211,43.6591825],[-79.3908817,43.6591535],[-79.3908389,43.6591256],[-79.3907958,43.6591009],[-79.3907516,43.65908],[-79.3907004,43.6590579],[-79.3906455,43.6590386],[-79.3905895,43.6590216],[-79.3905078,43.6590022],[-79.3904691,43.658995],[-79.3904238,43.6589885],[-79.3905582,43.6586554],[-79.3908373,43.6587165],[-79.3908834,43.6586433],[-79.3909129,43.6586538],[-79.3909525,43.6586685],[-79.3909829,43.6586833],[-79.3909938,43.6586673],[-79.3910001,43.6586698],[-79.391046,43.6586883],[-79.3911036,43.6587142],[-79.3912032,43.6587658],[-79.3912685,43.6588066],[-79.3912578,43.6588153],[-79.3912808,43.658831],[-79.3913005,43.6588143],[-79.3913205,43.6588283],[-79.3913392,43.6588165],[-79.391331,43.6588116],[-79.3913557,43.6587957],[-79.3913758,43.6587828],[-79.391523,43.6588962],[-79.3914771,43.6589276],[-79.3914698,43.6589206],[-79.3914517,43.6589344],[-79.39147,43.6589481],[-79.3914467,43.6589618],[-79.3914621,43.6589769],[-79.3914758,43.6589687],[-79.3915072,43.6590034],[-79.3915598,43.659061],[-79.3916087,43.6591199],[-79.3916464,43.6591801],[-79.3916227,43.6591894],[-79.3916454,43.6592261],[-79.3916603,43.659266],[-79.3916116,43.6592789],[-79.3915907,43.6592845],[-79.3916285,43.6593629],[-79.3916113,43.6593672],[-79.3916189,43.6594108],[-79.3916253,43.6594585],[-79.3916312,43.6594973],[-79.3911639,43.6595684]]]]}, "properties" : {"name" : "Intact Centre", "other_tags" : {"height": "62", "alt_name": "700U;700 University", "old_name": "Ontario Power Generation", "wikidata": "Q7094875", "addr:city": "Toronto", "wikipedia": "en:Intact Centre", "addr:street": "University Avenue", "roof:colour": "grey", "roof:material": "gravel", "building:colour": "#1034A6", "addr:housenumber": "700", "building:material": "glass"}, "type" : "Polygon"}}, {"type" : "Feature", "geometry" : {"type":"MultiPolygon","coordinates":[[[[-79.3982639,43.6588061],[-79.3982169,43.6586836],[-79.3981352,43.6584707],[-79.3978744,43.658521],[-79.3978638,43.6584942],[-79.3977384,43.6585184],[-79.3978005,43.6586756],[-79.3980322,43.658626],[-79.3980837,43.6587564],[-79.3978348,43.6588061],[-79.3978691,43.6588868],[-79.3982639,43.6588061]]]]}, "properties" : {"name" : "UTSU Student Commons", "other_tags" : {"operator": "University of Toronto Students' Union", "wikidata": "Q111669232", "addr:city": "Toronto", "wikipedia": "en:University of Toronto Students' Union", "addr:street": "College Street", "addr:country": "CA", "addr:postcode": "M5T 1R2", "building:levels": "5", "addr:housenumber": "230", "operator:wikidata": "Q7896501"}, "type" : "Polygon"}}, {"type" : "Feature", "geometry" : {"type":"MultiPolygon","coordinates":[[[[-79.3940307,43.6596579],[-79.3939182,43.6593952],[-79.3938768,43.6592987],[-79.3936535,43.6593488],[-79.3936732,43.6593947],[-79.3935308,43.6594267],[-79.3935174,43.6593953],[-79.3934765,43.6594045],[-79.3933984,43.659422],[-79.393301,43.6594438],[-79.3933118,43.6594689],[-79.3931503,43.6595051],[-79.3931319,43.6594622],[-79.3929045,43.6595132],[-79.3930069,43.6597521],[-79.3930966,43.6597321],[-79.3930994,43.6597315],[-79.3931458,43.659721],[-79.3932698,43.6596932],[-79.3932602,43.6596709],[-79.3934288,43.6596331],[-79.3934402,43.6596596],[-79.3935081,43.6596444],[-79.3935349,43.6596384],[-79.39356,43.6596328],[-79.3935493,43.659608],[-79.3937619,43.6595603],[-79.3938236,43.6597043],[-79.3940307,43.6596579]]]]}, "properties" : {"name" : "Lassonde Mining Building", "other_tags" : {"operator": "University of Toronto", "addr:city": "Toronto", "addr:street": "College Street", "name:etymology": "Pierre Lassonde", "building:levels": "4", "addr:housenumber": "170", "building:material": "stone", "name:etymology:wikidata": "Q3385801"}, "type" : "Polygon"}}, {"type" : "Feature", "geometry" : {"type":"MultiPolygon","coordinates":[[[[-79.3920284,43.6600452],[-79.3919158,43.659771],[-79.3915251,43.6598526],[-79.3916386,43.6601289],[-79.3918018,43.6600938],[-79.3919658,43.6600586],[-79.3920284,43.6600452]]]]}, "properties" : {"name" : "Leslie Dan Pharmacy Building", "other_tags" : {"website": "https://www.pharmacy.utoronto.ca/", "addr:city": "Toronto", "wikipedia": "en:Leslie Dan Faculty of Pharmacy", "addr:street": "College Street", "addr:postcode": "M5S 3M2", "building:levels": "12", "addr:housenumber": "144"}, "type" : "Polygon"}}, {"type" : "Feature", "geometry" : {"type":"MultiPolygon","coordinates":[[[[-79.3961676,43.6591588],[-79.3960455,43.6588662],[-79.39572,43.6589367],[-79.3957142,43.6589218],[-79.3954823,43.6589693],[-79.3954875,43.6589842],[-79.3949224,43.6591087],[-79.3949185,43.6590944],[-79.3948125,43.659118],[-79.3946946,43.6591445],[-79.3946995,43.6591564],[-79.3943171,43.6592385],[-79.3943838,43.6594056],[-79.3947737,43.6593226],[-79.3948575,43.6595081],[-79.3950595,43.6594667],[-79.394988,43.659293],[-79.3952012,43.6592463],[-79.3952541,43.6593758],[-79.3953619,43.6593509],[-79.3953729,43.659375],[-79.395449,43.6593587],[-79.3954408,43.6593338],[-79.3954671,43.6593283],[-79.3955161,43.6593173],[-79.3954809,43.6592304],[-79.395433,43.6592413],[-79.3954147,43.6591997],[-79.3955929,43.6591618],[-79.3956429,43.6592905],[-79.3958157,43.6592533],[-79.3957614,43.6591256],[-79.395892,43.6590979],[-79.395945,43.6592336],[-79.3960257,43.6592151],[-79.396018,43.6591878],[-79.3961676,43.6591588]]]]}, "properties" : {"name" : "Wallberg Building", "other_tags" : {"alt_name": "Wallberg Memorial Building", "operator": "University of Toronto", "addr:city": "Toronto", "addr:street": "St George Street", "addr:province": "Ontario", "building:levels": "4", "addr:housenumber": "184-200"}, "type" : "Polygon"}}, {"type" : "Feature", "geometry" : {"type":"MultiPolygon","coordinates":[[[[-79.4043917,43.6590494],[-79.4043856,43.6590341],[-79.4044287,43.6590251],[-79.4042196,43.6585022],[-79.4041735,43.6585119],[-79.4041667,43.6584948],[-79.4040244,43.6585246],[-79.4040841,43.6586737],[-79.4039908,43.6586933],[-79.4039712,43.6586444],[-79.4039439,43.6586501],[-79.4039275,43.6586091],[-79.4038827,43.6586185],[-79.4038618,43.6585663],[-79.4037995,43.6585794],[-79.4038216,43.6586348],[-79.4037869,43.6586421],[-79.4038106,43.6587015],[-79.4036889,43.658727],[-79.4036499,43.6586294],[-79.4036662,43.658626],[-79.4036525,43.6585919],[-79.4034434,43.6586356],[-79.40363,43.6591021],[-79.403842,43.6590577],[-79.4038251,43.6590155],[-79.4038071,43.6590192],[-79.4037693,43.6589249],[-79.4038766,43.6589024],[-79.4038918,43.6589406],[-79.4040983,43.6588974],[-79.4040933,43.6588847],[-79.4041654,43.6588696],[-79.4042492,43.6590792],[-79.4043917,43.6590494]]]]}, "properties" : {"name" : "North Building", "other_tags" : {"addr:city": "Toronto", "addr:street": "Brunswick Avenue", "addr:housenumber": "45"}, "type" : "Polygon"}}, {"type" : "Feature", "geometry" : {"type":"MultiPolygon","coordinates":[[[[-79.3999502,43.6601428],[-79.3999405,43.660146],[-79.3999462,43.660153],[-79.3999388,43.660156],[-79.3999576,43.6601812],[-79.3999935,43.6602081],[-79.400025,43.6602316],[-79.3999963,43.6602533],[-79.3999563,43.660223],[-79.3999246,43.660199],[-79.3999009,43.6601686],[-79.3998925,43.6601715],[-79.3998764,43.6601611],[-79.3996426,43.660211],[-79.3995561,43.6600008],[-79.3996813,43.6599721],[-79.3996787,43.6599668],[-79.3997534,43.659951],[-79.3997564,43.6599563],[-79.3998077,43.6599446],[-79.3998459,43.6599954],[-79.3998365,43.6599981],[-79.3999053,43.6600968],[-79.3999153,43.6600929],[-79.3999502,43.6601428]]]]}, "properties" : {"name" : "South Borden Building", "other_tags" : {"operator": "University of Toronto", "wikidata": "Q16952807", "addr:city": "Toronto", "wikipedia": "en:Borden Buildings", "addr:street": "Spadina Avenue", "addr:housenumber": "487"}, "type" : "Polygon"}}, {"type" : "Feature", "geometry" : {"type":"MultiPolygon","coordinates":[[[[-79.3949374,43.6597436],[-79.3950183,43.659727],[-79.3950358,43.6597234],[-79.3950571,43.659719],[-79.3951762,43.6596946],[-79.3951606,43.6596548],[-79.3951513,43.6596311],[-79.3950895,43.6594733],[-79.3950595,43.6594667],[-79.3948575,43.6595081],[-79.3948609,43.6595405],[-79.3946602,43.6595816],[-79.3946451,43.6595428],[-79.3945813,43.6595559],[-79.3945584,43.6594972],[-79.3945151,43.6595061],[-79.394538,43.6595645],[-79.3944552,43.6595815],[-79.3945161,43.6597371],[-79.3945337,43.6597485],[-79.3945581,43.6597545],[-79.3945905,43.6597479],[-79.3945866,43.6597379],[-79.3946301,43.6597289],[-79.3946387,43.6597507],[-79.394872,43.6597028],[-79.3948641,43.6596827],[-79.3949099,43.6596733],[-79.3949374,43.6597436]]]]}, "properties" : {"name" : "D. L. Pratt Building", "other_tags" : {"operator": "University of Toronto", "addr:city": "Toronto", "addr:street": "King's College Road", "building:levels": "4", "addr:housenumber": "6"}, "type" : "Polygon"}}, {"type" : "Feature", "geometry" : {"type":"MultiPolygon","coordinates":[[[[-79.3994705,43.6581692],[-79.3998473,43.6580881],[-79.3999695,43.6583804],[-79.3997387,43.6584295],[-79.399681,43.6582994],[-79.399535,43.6583313],[-79.3994705,43.6581692]]]]}, "properties" : {"name" : "Centre for Urban and Community Studies", "other_tags" : {"operator": "University of Toronto", "addr:city": "Toronto", "addr:street": "Spadina Avenue", "building:levels": "4", "addr:housenumber": "455"}, "type" : "Polygon"}}, {"type" : "Feature", "geometry" : {"type":"MultiPolygon","coordinates":[[[[-79.3982679,43.6600434],[-79.3981961,43.6598712],[-79.3980804,43.6598976],[-79.3980621,43.6598541],[-79.3979319,43.659882],[-79.3978829,43.6597624],[-79.39774,43.659793],[-79.3977561,43.6598321],[-79.3976966,43.6598449],[-79.3977173,43.6598953],[-79.3977462,43.6598891],[-79.3977584,43.659919],[-79.3974554,43.659984],[-79.3974845,43.660055],[-79.3975434,43.6601988],[-79.3981478,43.6600692],[-79.3982679,43.6600434]]]]}, "properties" : {"name" : "Central Steam Plant", "other_tags" : {"operator": "University of Toronto", "addr:street": "Russell Street", "roof:levels": "0", "building:levels": "2", "addr:housenumber": "17"}, "type" : "Polygon"}}, {"type" : "Feature", "geometry" : {"type":"MultiPolygon","coordinates":[[[[-79.398724,43.6599723],[-79.3983277,43.6600533],[-79.3982135,43.659761],[-79.3986099,43.6596799],[-79.398724,43.6599723]]]]}, "properties" : {"name" : "Anthropology Building", "other_tags" : {"operator": "University of Toronto", "addr:city": "Toronto", "addr:street": "Russell Street", "roof:levels": "0", "building:levels": "5", "addr:housenumber": "19"}, "type" : "Polygon"}}, {"type" : "Feature", "geometry" : {"type":"MultiPolygon","coordinates":[[[[-79.40092,43.6587887],[-79.4006605,43.6588428],[-79.4005241,43.6585132],[-79.4010023,43.6584154],[-79.4010244,43.6584718],[-79.4009685,43.6584835],[-79.4009838,43.6585219],[-79.400945,43.6585299],[-79.4009669,43.658585],[-79.4008927,43.6586004],[-79.4009452,43.6587325],[-79.4009012,43.6587417],[-79.40092,43.6587887]]]]}, "properties" : {"name" : "The Scott Mission", "other_tags" : {"wikidata": "Q7762637", "addr:city": "Toronto", "wikipedia": "en:The Scott Mission", "addr:street": "Spadina Avenue", "addr:housenumber": "502"}, "type" : "Polygon"}}, {"type" : "Feature", "geometry" : {"type":"MultiPolygon","coordinates":[[[[-79.395726,43.6569511],[-79.3953646,43.6570287],[-79.3954338,43.6571976],[-79.3957953,43.65712],[-79.395726,43.6569511]]]]}, "properties" : {"name" : "Polish Combatants Association, Branch 20", "other_tags" : {"club": "social", "addr:city": "Toronto", "architect": "Wieslaw Wodkiewicz", "start_date": "1973", "addr:street": "Beverley Street", "addr:postcode": "M5T 1Z3", "building:levels": "2", "addr:housenumber": "206"}, "type" : "Polygon"}}, {"type" : "Feature", "geometry" : {"type":"MultiPolygon","coordinates":[[[[-79.3976665,43.6586539],[-79.3973488,43.6587188],[-79.3974474,43.6589715],[-79.3975364,43.6589533],[-79.3975164,43.6589022],[-79.3976588,43.6588731],[-79.3976776,43.6589212],[-79.3977639,43.6589036],[-79.3976665,43.6586539]]]]}, "properties" : {"name" : "Fields Institute for Research in Math Science", "other_tags" : {"operator": "University of Toronto", "wikidata": "Q544545", "addr:city": "Toronto", "wikipedia": "en:Fields Institute", "addr:street": "College Street", "building:levels": "4", "addr:housenumber": "222"}, "type" : "Polygon"}}, {"type" : "Feature", "geometry" : {"type":"MultiPolygon","coordinates":[[[[-79.3956524,43.6594726],[-79.3952024,43.659568],[-79.3952241,43.6596241],[-79.3951513,43.6596311],[-79.3951606,43.6596548],[-79.3952345,43.6596487],[-79.3952521,43.6596894],[-79.3952707,43.6597397],[-79.3954353,43.6597038],[-79.395714,43.6596431],[-79.3956524,43.6594726]]]]}, "properties" : {"name" : "Engineering Annex", "other_tags" : {"operator": "University of Toronto", "addr:city": "Toronto", "addr:street": "King's College Road", "building:levels": "3", "addr:housenumber": "11"}, "type" : "Polygon"}}, {"type" : "Feature", "geometry" : {"type":"MultiPolygon","coordinates":[[[[-79.3938474,43.6600226],[-79.3935445,43.660091],[-79.3934285,43.6598222],[-79.3935985,43.6597838],[-79.3936238,43.6597781],[-79.3937314,43.6597538],[-79.3938474,43.6600226]]]]}, "properties" : {"name" : "Haultain Building", "other_tags" : {"operator": "University of Toronto", "addr:city": "Toronto", "addr:street": "College Street", "roof:levels": "0", "building:levels": "4", "addr:housenumber": "170"}, "type" : "Polygon"}}, {"type" : "Feature", "geometry" : {"type":"MultiPolygon","coordinates":[[[[-79.3973127,43.6582861],[-79.3971046,43.6583264],[-79.3970322,43.6581302],[-79.3972402,43.65809],[-79.3973127,43.6582861]]]]}, "properties" : {"name" : "Gage Building", "other_tags" : {"addr:city": "Toronto", "addr:street": "College Street", "building:colour": "beige", "building:levels": "3", "addr:housenumber": "223", "building:material": "brick"}, "type" : "Polygon"}}, {"type" : "Feature", "geometry" : {"type":"MultiPolygon","coordinates":[[[[-79.3933051,43.6590909],[-79.3930253,43.6591527],[-79.3929829,43.6591621],[-79.3923215,43.6593081],[-79.3922218,43.6590719],[-79.392742,43.6589571],[-79.3927719,43.6589505],[-79.3930085,43.6588975],[-79.3930425,43.6588903],[-79.3932055,43.6588548],[-79.3933051,43.6590909]]]]}, "properties" : {"name" : "Health Sciences Building", "other_tags" : {"operator": "University of Toronto", "addr:city": "Toronto", "built_date": "1959", "addr:street": "College Street", "building:colour": "gray", "building:levels": "7", "addr:housenumber": "155", "building:material": "stone"}, "type" : "Polygon"}}, {"type" : "Feature", "geometry" : {"type":"MultiPolygon","coordinates":[[[[-79.3937059,43.6590438],[-79.3935669,43.658707],[-79.3934271,43.6587372],[-79.393566,43.659074],[-79.3937059,43.6590438]]]]}, "properties" : {"name" : "University of Toronto Communications House", "other_tags" : {"addr:city": "Toronto", "addr:street": "College Street", "building:colour": "red", "building:levels": "3", "addr:housenumber": "167", "building:material": "brick"}, "type" : "Polygon"}}, {"type" : "Feature", "geometry" : {"type":"MultiPolygon","coordinates":[[[[-79.3938304,43.6586089],[-79.3934067,43.6587035],[-79.3933344,43.658534],[-79.393323,43.6585073],[-79.3934564,43.6584776],[-79.3934774,43.6585268],[-79.3937996,43.6584548],[-79.3938545,43.6585836],[-79.3938226,43.6585908],[-79.3938304,43.6586089]]]]}, "properties" : {"name" : "Caretaking", "other_tags" : {"operator": "University of Toronto", "addr:city": "Toronto", "addr:street": "McCaul Street", "building:colour": "red", "building:levels": "5", "addr:housenumber": "256", "building:material": "brick"}, "type" : "Polygon"}}, {"type" : "Feature", "geometry" : {"type":"MultiPolygon","coordinates":[[[[-79.3931534,43.6587063],[-79.3929857,43.6587444],[-79.3929496,43.6587526],[-79.3927535,43.6587957],[-79.3927491,43.6587865],[-79.3927025,43.6587966],[-79.3926694,43.6587173],[-79.3927082,43.6587084],[-79.3925136,43.6582341],[-79.392919,43.6581447],[-79.3931079,43.6585909],[-79.3931534,43.6587063]]]]}, "properties" : {"name" : "Central Exams Facility", "other_tags" : {"operator": "University of Toronto", "addr:city": "Toronto", "addr:street": "McCaul Street", "building:levels": "3", "addr:housenumber": "255"}, "type" : "Polygon"}}, {"type" : "Feature", "geometry" : {"type":"MultiPolygon","coordinates":[[[[-79.3925857,43.6586351],[-79.3923355,43.6586887],[-79.3923763,43.6587899],[-79.3923341,43.6587986],[-79.3923535,43.6588466],[-79.3923944,43.6588389],[-79.3924342,43.6589367],[-79.3926888,43.6588869],[-79.3926559,43.6588069],[-79.392676,43.6588026],[-79.3927025,43.6587966],[-79.3926694,43.6587173],[-79.3926258,43.6587268],[-79.3925857,43.6586351]]]]}, "properties" : {"name" : "Old Admin Building", "other_tags" : {"operator": "University of Toronto", "building:levels": "5"}, "type" : "Polygon"}}, {"type" : "Feature", "geometry" : {"type":"MultiPolygon","coordinates":[[[[-79.3910076,43.6512579],[-79.3909076,43.6512798],[-79.3908105,43.651301],[-79.3906553,43.6509294],[-79.3908524,43.6508863],[-79.3910076,43.6512579]]]]}, "properties" : {"name" : "Harrison Baths and Swimming Pool", "other_tags" : {"addr:city": "Toronto", "addr:street": "Stephanie Street", "building:levels": "1", "addr:housenumber": "15"}, "type" : "Polygon"}}, {"type" : "Feature", "geometry" : {"type":"MultiPolygon","coordinates":[[[[-79.3915287,43.6532878],[-79.3911496,43.6533729],[-79.3908437,43.6526261],[-79.3912143,43.6525437],[-79.3915287,43.6532878]]]]}, "properties" : {"name" : "Sharp Centre for Design", "other_tags" : {"ref": "0", "layer": "5", "height": "26", "name:ko": "샤프 디자인 센터", "website": "https://www.ocadu.ca/", "operator": "OCAD University", "addr:city": "Toronto", "min_height": "19", "addr:street": "McCaul Street", "roof:colour": "#d3d3d3", "addr:postcode": "M5T 1W1", "building:levels": "7", "addr:housenumber": "100", "building:min_level": "5"}, "type" : "Polygon"}}, {"type" : "Feature", "geometry" : {"type":"MultiPolygon","coordinates":[[[[-79.3983194,43.6527612],[-79.3986303,43.6526959],[-79.3988681,43.6526447],[-79.39875,43.6523601],[-79.3986999,43.652236],[-79.3986607,43.6521368],[-79.3980416,43.6522741],[-79.3981066,43.6524376],[-79.3982173,43.6527348],[-79.3982311,43.6527314],[-79.3982251,43.652747],[-79.3982303,43.6527628],[-79.3982454,43.6527748],[-79.3982666,43.65278],[-79.3982887,43.6527771],[-79.3983061,43.6527669],[-79.3983145,43.6527519],[-79.3983194,43.6527612]]]]}, "properties" : {"name" : "Dragon City", "other_tags" : {"addr:city": "Toronto", "wheelchair": "yes", "addr:street": "Dundas Street West", "building:levels": "4", "addr:housenumber": "519"}, "type" : "Polygon"}}, {"type" : "Feature", "geometry" : {"type":"MultiPolygon","coordinates":[[[[-79.3926376,43.6513856],[-79.3926905,43.6515104],[-79.3926253,43.6515249],[-79.392619,43.6515099],[-79.3925104,43.651534],[-79.3924992,43.6515365],[-79.3925054,43.6515512],[-79.3924579,43.6515617],[-79.3924661,43.6515809],[-79.3923796,43.6516001],[-79.3923601,43.6515541],[-79.3922761,43.6515727],[-79.3922659,43.6515487],[-79.3921883,43.6515659],[-79.3921753,43.6515353],[-79.392101,43.6515518],[-79.3920866,43.6515549],[-79.3920893,43.6515613],[-79.3920431,43.6515715],[-79.3920453,43.6515766],[-79.3920076,43.6515849],[-79.391998,43.6515623],[-79.3920028,43.6515612],[-79.391959,43.6514578],[-79.3919569,43.6514583],[-79.3919481,43.6514376],[-79.3919805,43.6514304],[-79.3919828,43.6514358],[-79.3920309,43.6514251],[-79.3920348,43.6514344],[-79.3921237,43.6514146],[-79.3921101,43.6513825],[-79.3921933,43.651364],[-79.392207,43.6513961],[-79.3922911,43.6513774],[-79.3923045,43.651409],[-79.3923888,43.6513903],[-79.3923966,43.6514088],[-79.392435,43.6514003],[-79.3924413,43.6514151],[-79.3925721,43.651386],[-79.392567,43.6513739],[-79.3926337,43.6513591],[-79.3926443,43.6513841],[-79.3926376,43.6513856]]]]}, "properties" : {"name" : "Gallery Towers", "other_tags" : {"phone": "+1-416-977-1154", "operator": "Bernada Properties", "addr:city": "Toronto", "addr:street": "Stephanie Street", "building:use": "residential", "building:levels": "24", "addr:housenumber": "50"}, "type" : "Polygon"}}, {"type" : "Feature", "geometry" : {"type":"MultiPolygon","coordinates":[[[[-79.3960592,43.6534519],[-79.3962178,43.6538383],[-79.3959278,43.6538997],[-79.3958592,43.6537327],[-79.3959974,43.653703],[-79.3959934,43.6536931],[-79.3959078,43.6534845],[-79.3960592,43.6534519]]]]}, "properties" : {"name" : "多倫多華人福音堂", "other_tags" : {"phone": "+1 416-977-2530", "name:en": "Chinese Gospel Church of Toronto", "website": "http://www.chinesegospelchurch.ca", "religion": "christian", "addr:city": "Toronto", "addr:street": "Dundas Street West", "denomination": "gospel", "addr:postcode": "M5T 1G7", "addr:province": "Ontario", "addr:housenumber": "444"}, "type" : "Polygon"}}, {"type" : "Feature", "geometry" : {"type":"MultiPolygon","coordinates":[[[[-79.3914094,43.6546977],[-79.3914287,43.6547405],[-79.3914471,43.6547828],[-79.3914294,43.6547866],[-79.3914144,43.6547897],[-79.3914427,43.6548573],[-79.391349,43.654877],[-79.3913407,43.6548571],[-79.3910878,43.6549125],[-79.3911047,43.6549519],[-79.3910805,43.6549574],[-79.3910743,43.6549708],[-79.3910573,43.6549796],[-79.3910359,43.6549788],[-79.3910216,43.6549708],[-79.3909936,43.6549767],[-79.3909918,43.6549731],[-79.3909385,43.6549849],[-79.3909321,43.6549699],[-79.3907693,43.6550056],[-79.390692,43.6548275],[-79.390819,43.6547997],[-79.3908167,43.6547875],[-79.3908203,43.6547783],[-79.390828,43.6547725],[-79.3908134,43.6547414],[-79.3908018,43.6547172],[-79.3908369,43.6547089],[-79.3908484,43.6547337],[-79.3908836,43.6547259],[-79.3908823,43.6547221],[-79.3909182,43.6547142],[-79.3909189,43.6547011],[-79.3909336,43.6546929],[-79.3909521,43.6546928],[-79.3909671,43.654703],[-79.3909999,43.6546963],[-79.3910162,43.6547332],[-79.3912674,43.6546771],[-79.3912665,43.6546748],[-79.3913374,43.6546596],[-79.391357,43.6547092],[-79.3913621,43.6547081],[-79.3913784,43.6547047],[-79.3913934,43.6547014],[-79.3914094,43.6546977]]]]}, "properties" : {"name" : "St. Patrick's Catholic Church", "other_tags" : {"website": "http://www.stpatrickstoronto.ca/", "religion": "christian", "wikidata": "Q7590933", "addr:city": "Toronto", "wikipedia": "en:St. Patrick's Church (Toronto)", "addr:street": "McCaul Street", "roof:colour": "#696969", "denomination": "catholic", "opendata:type": "109001", "building:colour": "grey", "addr:housenumber": "131", "building:material": "stone"}, "type" : "Polygon"}}, {"type" : "Feature", "geometry" : {"type":"MultiPolygon","coordinates":[[[[-79.4041823,43.6570161],[-79.4039141,43.6570637],[-79.4039184,43.6570765],[-79.4038745,43.6570843],[-79.4038734,43.6570811],[-79.4037816,43.6570974],[-79.4037641,43.6570458],[-79.4037258,43.6570526],[-79.4036986,43.6569726],[-79.4037371,43.6569657],[-79.4037208,43.6569175],[-79.4041302,43.6568448],[-79.4041506,43.6569049],[-79.4041708,43.6569013],[-79.4041878,43.6569515],[-79.4041619,43.6569561],[-79.4041823,43.6570161]]]]}, "properties" : {"name" : "St. Stephen-in-the-fields Anglican Church", "other_tags" : {"religion": "christian", "addr:street": "Bellevue Avenue", "denomination": "anglican", "addr:housenumber": "103"}, "type" : "Polygon"}}, {"type" : "Feature", "geometry" : {"type":"MultiPolygon","coordinates":[[[[-79.3920451,43.6575483],[-79.3922783,43.6581167],[-79.3921664,43.6581393],[-79.3921604,43.6581223],[-79.3918855,43.6581803],[-79.3918141,43.6581949],[-79.3918198,43.6582099],[-79.3915584,43.6582648],[-79.3915496,43.6582468],[-79.3914749,43.6582623],[-79.3914336,43.6581618],[-79.3912833,43.657796],[-79.3912425,43.6576966],[-79.3913191,43.6576806],[-79.3913119,43.6576631],[-79.3915801,43.6576055],[-79.3915856,43.6576191],[-79.391654,43.6576042],[-79.3916649,43.6576291],[-79.3920451,43.6575483]]]]}, "properties" : {"name" : "Mount Sinai Hospital", "other_tags" : {"website": "https://www.mountsinai.on.ca/care/rmcad/programs/chiropractic-spine-clinic", "healthcare": "hospital", "attribution": "Natural Resources Canada", "canvec:CODE": "2010252", "canvec:UUID": "ac38bf0b884f464a99bdc1194811c1b5"}, "type" : "Polygon"}}, {"type" : "Feature", "geometry" : {"type":"MultiPolygon","coordinates":[[[[-79.4083778,43.6565005],[-79.408387,43.6565231],[-79.4084454,43.6566792],[-79.4083222,43.6567032],[-79.4082848,43.6567766],[-79.4082518,43.6567827],[-79.4082801,43.6568534],[-79.4083189,43.6569504],[-79.4080657,43.6569997],[-79.4080297,43.6569045],[-79.4079727,43.6567549],[-79.4079762,43.6567543],[-79.4079703,43.6567381],[-79.4079526,43.6567417],[-79.4079372,43.6567032],[-79.4079884,43.6566935],[-79.4079997,43.6567226],[-79.408035,43.6567084],[-79.4080605,43.6566888],[-79.4080674,43.6566776],[-79.4080753,43.6566646],[-79.4080759,43.6566556],[-79.4080769,43.6566415],[-79.4080728,43.6566279],[-79.4080367,43.6566354],[-79.4080226,43.6566],[-79.4080168,43.6565969],[-79.4080151,43.6565915],[-79.4080186,43.656587],[-79.4080243,43.6565852],[-79.4080309,43.6565863],[-79.4080807,43.6565767],[-79.4080827,43.6565821],[-79.4081045,43.6565782],[-79.4080981,43.6565602],[-79.408142,43.6565515],[-79.4081387,43.6565436],[-79.4083395,43.6565014],[-79.4083425,43.6565079],[-79.4083778,43.6565005]]]]}, "properties" : {"name" : "College Street United Church", "other_tags" : {"religion": "christian", "wikidata": "Q5146555", "addr:city": "Toronto", "wikipedia": "en:College Street United Church", "wheelchair": "yes", "addr:street": "College Street", "attribution": "Natural Resources Canada", "denomination": "united", "addr:housenumber": "456"}, "type" : "Polygon"}}, {"type" : "Feature", "geometry" : {"type":"MultiPolygon","coordinates":[[[[-79.3914233,43.6517809],[-79.3914792,43.6519136],[-79.391747,43.6518546],[-79.391816,43.6520185],[-79.3915415,43.652079],[-79.391557,43.6521159],[-79.3915322,43.6521214],[-79.3914403,43.6521417],[-79.3914468,43.652157],[-79.3910962,43.6522343],[-79.3910168,43.652043],[-79.3910217,43.6520419],[-79.3909787,43.6519397],[-79.3909553,43.6518841],[-79.3914233,43.6517809]]]]}, "properties" : {"name" : "The University Settlement Recreation Centre", "other_tags" : {"website": "https://www.universitysettlement.ca/", "addr:city": "Toronto", "addr:street": "Grange Road", "attribution": "Natural Resources Canada", "canvec:CODE": "2010082", "canvec:UUID": "e8384c66a8ea4e619e26680a45cff2e5", "building:levels": "2", "addr:housenumber": "23"}, "type" : "Polygon"}}, {"type" : "Feature", "geometry" : {"type":"MultiPolygon","coordinates":[[[[-79.3982425,43.6581299],[-79.3984219,43.6580937],[-79.3986032,43.658057],[-79.3985001,43.6577899],[-79.3981518,43.6578602],[-79.3981393,43.6578628],[-79.3982015,43.6580238],[-79.3982331,43.6581057],[-79.3982425,43.6581299]]]]}, "properties" : {"name" : "Toronto Public Library - Lillian H. Smith", "other_tags" : {"website": "https://www.torontopubliclibrary.ca/detail.jsp?R=LIB011", "operator": "Toronto Public Library", "addr:city": "Toronto", "wheelchair": "yes", "addr:street": "College Street", "opening_hours": "Mo-Th 09:00-20:30; Sa 09:00-17:00; Su 13:30-17:00; Fr 09:00-20:30", "operator:type": "public", "operator:short": "TPL", "building:colour": "beige", "building:levels": "4", "internet_access": "wlan", "addr:housenumber": "239", "building:material": "brick", "operator:wikidata": "Q2901516", "operator:wikipedia": "en:Toronto Public Library", "internet_access:fee": "no"}, "type" : "Polygon"}}, {"type" : "Feature", "geometry" : {"type":"MultiPolygon","coordinates":[[[[-79.390873,43.6553759],[-79.3911497,43.6553184],[-79.3911599,43.6553448],[-79.3912245,43.655331],[-79.391214,43.655305],[-79.3912088,43.6552922],[-79.3912418,43.6552852],[-79.3912305,43.6552572],[-79.3912201,43.6552595],[-79.391234,43.6552374],[-79.3912174,43.6551956],[-79.3911842,43.6551801],[-79.3911974,43.6551773],[-79.3911869,43.6551499],[-79.3911539,43.6551566],[-79.391136,43.6551092],[-79.3910148,43.6551343],[-79.3910327,43.6551818],[-79.390814,43.6552272],[-79.3908343,43.6552786],[-79.3907807,43.6552898],[-79.3907987,43.6553346],[-79.3908522,43.6553235],[-79.390873,43.6553759]]]]}, "properties" : {"name" : "Our Lady of Mount Carmel Catholic Church", "other_tags" : {"name:zh": "多倫多嘉模聖母堂", "website": "http://www.jiamo.org/", "religion": "christian", "addr:city": "Toronto", "ethnicity": "chinese", "addr:street": "St. Patrick Street", "roof:colour": "grey", "denomination": "catholic", "addr:postcode": "M5T 1V4", "building:colour": "beige", "addr:housenumber": "202", "building:material": "brick"}, "type" : "Polygon"}}, {"type" : "Feature", "geometry" : {"type":"MultiPolygon","coordinates":[[[[-79.3898863,43.653849],[-79.3896564,43.6538991],[-79.3895926,43.6537459],[-79.3898225,43.6536958],[-79.3898863,43.653849]]]]}, "properties" : {"name" : "248 Simcoe West", "other_tags" : {"building:levels": "12"}, "type" : "Polygon"}}, {"type" : "Feature", "geometry" : {"type":"MultiPolygon","coordinates":[[[[-79.389934,43.6560048],[-79.3900746,43.6559734],[-79.3900697,43.6559625],[-79.3901791,43.6559395],[-79.3901705,43.6559187],[-79.3902836,43.6558949],[-79.3902584,43.6558383],[-79.3902912,43.6558005],[-79.3903016,43.6557966],[-79.3903083,43.6557876],[-79.3903055,43.6557789],[-79.390395,43.6557582],[-79.3904002,43.6557703],[-79.3905163,43.6557446],[-79.3905223,43.6557591],[-79.3906677,43.6557285],[-79.3905834,43.6555317],[-79.3904477,43.655562],[-79.3904524,43.6555731],[-79.390343,43.6555967],[-79.3903503,43.6556149],[-79.3902453,43.6556389],[-79.3902544,43.6556579],[-79.3901816,43.655674],[-79.3902201,43.6557631],[-79.3902236,43.6557711],[-79.3901233,43.6557927],[-79.3901125,43.6557678],[-79.3900037,43.6557917],[-79.3899998,43.6557817],[-79.3898524,43.655812],[-79.389934,43.6560048]]]]}, "properties" : {"name" : "One Park Lane C", "other_tags" : {"building:levels": "16"}, "type" : "Polygon"}}, {"type" : "Feature", "geometry" : {"type":"MultiPolygon","coordinates":[[[[-79.3904387,43.6560716],[-79.3907818,43.6559966],[-79.3907148,43.6558359],[-79.3903716,43.6559108],[-79.3904387,43.6560716]]]]}, "properties" : {"name" : "Hastings Co-op", "other_tags" : {"building:levels": "14"}, "type" : "Polygon"}}, {"type" : "Feature", "geometry" : {"type":"MultiPolygon","coordinates":[[[[-79.390529,43.655387],[-79.3903185,43.6549116],[-79.3900622,43.654971],[-79.3902727,43.6554464],[-79.390529,43.655387]]]]}, "properties" : {"name" : "One Park Lane B", "other_tags" : {"building:levels": "10"}, "type" : "Polygon"}}, {"type" : "Feature", "geometry" : {"type":"MultiPolygon","coordinates":[[[[-79.3900502,43.6556176],[-79.3900398,43.6555948],[-79.3900472,43.6555933],[-79.3900187,43.6555208],[-79.3900006,43.6555242],[-79.3899523,43.6554129],[-79.3899271,43.655418],[-79.389905,43.655367],[-79.3899322,43.6553609],[-79.3898822,43.6552472],[-79.3899003,43.6552435],[-79.3898728,43.655173],[-79.3898617,43.6551746],[-79.3898457,43.6551405],[-79.3895779,43.6552003],[-79.3896247,43.6553037],[-79.3896425,43.6552998],[-79.3897608,43.6555795],[-79.3897437,43.6555831],[-79.3897817,43.6556772],[-79.3900502,43.6556176]]]]}, "properties" : {"name" : "One Park Lane A", "other_tags" : {"building:levels": "15"}, "type" : "Polygon"}}, {"type" : "Feature", "geometry" : {"type":"MultiPolygon","coordinates":[[[[-79.399677,43.6593726],[-79.3998912,43.6593291],[-79.39986,43.6592487],[-79.3996458,43.6592923],[-79.399677,43.6593726]]]]}, "properties" : {"name" : "T.H.E.S. University Substation", "other_tags" : {"power": "substation"}, "type" : "Polygon"}}, {"type" : "Feature", "geometry" : {"type":"MultiPolygon","coordinates":[[[[-79.3934892,43.6574007],[-79.393855,43.6573226],[-79.3938397,43.6572851],[-79.3938197,43.6572894],[-79.3937847,43.6572035],[-79.3938078,43.6571986],[-79.3937915,43.6571585],[-79.3934225,43.6572372],[-79.3934892,43.6574007]]]]}, "properties" : {"name" : "Holy Trinity Russian Orthodox Church", "other_tags" : {"religion": "christian", "wheelchair": "yes", "denomination": "orthodox"}, "type" : "Polygon"}}, {"type" : "Feature", "geometry" : {"type":"MultiPolygon","coordinates":[[[[-79.3913759,43.6562069],[-79.3917806,43.6561205],[-79.3917277,43.6559907],[-79.391166,43.6561106],[-79.3912292,43.6562655],[-79.3913861,43.656232],[-79.3913759,43.6562069]]]]}, "properties" : {"name" : "Elm Place East", "other_tags" : {"operator": "Cherishome Living", "addr:city": "Toronto", "addr:street": "Elm Street", "building:colour": "white", "building:levels": "13", "addr:housenumber": "200"}, "type" : "Polygon"}}, {"type" : "Feature", "geometry" : {"type":"MultiPolygon","coordinates":[[[[-79.3910703,43.6559421],[-79.3909471,43.6556511],[-79.3910225,43.6556351],[-79.3910124,43.6556132],[-79.3911338,43.655587],[-79.3911432,43.6556074],[-79.391372,43.655556],[-79.3913548,43.6555133],[-79.3913255,43.6554422],[-79.3917338,43.6553549],[-79.3917524,43.6554003],[-79.3917803,43.6554686],[-79.3914255,43.6555445],[-79.3915416,43.6558425],[-79.3910703,43.6559421]]]]}, "properties" : {"name" : "The Michener Institute", "other_tags" : {"wikidata": "Q7751248", "wikipedia": "en:The Michener Institute", "building:levels": "14"}, "type" : "Polygon"}}, {"type" : "Feature", "geometry" : {"type":"MultiPolygon","coordinates":[[[[-79.3915105,43.6517274],[-79.3912375,43.6517864],[-79.3912227,43.6517504],[-79.3913157,43.6517303],[-79.3912833,43.6516518],[-79.3911529,43.6516799],[-79.3911146,43.6515872],[-79.3910479,43.6516016],[-79.3910417,43.6515866],[-79.39089,43.6516194],[-79.3908702,43.6515716],[-79.390806,43.6515854],[-79.39076,43.6514738],[-79.3910582,43.6514094],[-79.3910691,43.6514359],[-79.3911688,43.6514143],[-79.391234,43.6515724],[-79.3913777,43.6515414],[-79.39141,43.6516197],[-79.3913848,43.6516251],[-79.3913911,43.6516403],[-79.3914677,43.6516237],[-79.3915105,43.6517274]]]]}, "properties" : {"name" : "St. George the Martyr Anglican Church", "other_tags" : {"religion": "christian", "addr:city": "Toronto", "addr:street": "John Street", "roof:colour": "grey", "denomination": "anglican", "addr:postcode": "M5T 1X6", "building:colour": "#daa520", "addr:housenumber": "197", "building:material": "brick"}, "type" : "Polygon"}}, {"type" : "Feature", "geometry" : {"type":"MultiPolygon","coordinates":[[[[-79.3921892,43.6593393],[-79.3921769,43.6593107],[-79.3921578,43.6592662],[-79.3921372,43.6592704],[-79.3920565,43.6590877],[-79.3919821,43.6591034],[-79.3919754,43.6590869],[-79.3921614,43.6590487],[-79.3921335,43.6589807],[-79.3918733,43.6590359],[-79.3919002,43.6591023],[-79.391907,43.6591196],[-79.3918501,43.659132],[-79.39183,43.6591259],[-79.3918021,43.6591323],[-79.3917901,43.6591508],[-79.391799,43.6591706],[-79.3918107,43.6591743],[-79.391875,43.6593268],[-79.3918702,43.6593277],[-79.3918885,43.6593706],[-79.3919002,43.6593989],[-79.3919106,43.6594109],[-79.3919288,43.6594161],[-79.3919477,43.6594125],[-79.3919569,43.659406],[-79.3921475,43.6593637],[-79.3921561,43.6593676],[-79.392181,43.6593622],[-79.3921922,43.6593468],[-79.3921892,43.6593393]]]]}, "properties" : {"name" : "Stewart Building", "other_tags" : {"operator": "University of Toronto", "wikidata": "Q7826270", "wikipedia": "en:Toronto Athletic Club", "building:colour": "orange", "building:levels": "5"}, "type" : "Polygon"}}, {"type" : "Feature", "geometry" : {"type":"MultiPolygon","coordinates":[[[[-79.4038919,43.6576325],[-79.4038872,43.6576205],[-79.4037932,43.6573852],[-79.4029771,43.657561],[-79.4030744,43.6578044],[-79.4032992,43.6577574],[-79.4032761,43.6576997],[-79.4033362,43.6576872],[-79.4033409,43.6576991],[-79.4034796,43.6576701],[-79.4035802,43.6576491],[-79.4035758,43.657638],[-79.4036391,43.6576247],[-79.4036615,43.6576807],[-79.4038919,43.6576325]]]]}, "properties" : {"name" : "Kensington Health Campus", "other_tags" : {"addr:city": "Toronto", "roof:shape": "flat", "addr:street": "College Street", "building:levels": "6", "addr:housenumber": "340"}, "type" : "Polygon"}}, {"type" : "Feature", "geometry" : {"type":"MultiPolygon","coordinates":[[[[-79.4002597,43.6578278],[-79.4005074,43.6577742],[-79.4004493,43.6576334],[-79.4002015,43.657687],[-79.4002597,43.6578278]]]]}, "properties" : {"name" : "Rexall", "other_tags" : {"brand": "Rexall", "website": "https://www.rexall.ca/", "dispensing": "yes", "healthcare": "pharmacy", "addr:street": "Spadina Avenue", "opening_hours": "Mo-Su 08:00-10:00", "brand:wikidata": "Q39045377", "brand:wikipedia": "en:Rexall (Canada)", "building:levels": "2", "addr:housenumber": "474"}, "type" : "Polygon"}}, {"type" : "Feature", "geometry" : {"type":"MultiPolygon","coordinates":[[[[-79.3964278,43.6564327],[-79.3962943,43.6561247],[-79.3961471,43.6561581],[-79.3962806,43.6564662],[-79.3963306,43.6564548],[-79.3964278,43.6564327]]]]}, "properties" : {"name" : "Toronto Labor Lyceum", "other_tags" : {"building:levels": "2", "building:material": "brick"}, "type" : "Polygon"}}, {"type" : "Feature", "geometry" : {"type":"MultiPolygon","coordinates":[[[[-79.393471,43.6554806],[-79.3932947,43.655517],[-79.3932416,43.6553822],[-79.3931458,43.6554019],[-79.393127,43.6553543],[-79.3930933,43.6553612],[-79.3930717,43.6553063],[-79.3930455,43.6553117],[-79.3929897,43.6551702],[-79.3931811,43.6551307],[-79.3931741,43.6551129],[-79.3933124,43.6550843],[-79.3933954,43.6552947],[-79.3934705,43.6552792],[-79.3935168,43.6553965],[-79.3934438,43.6554116],[-79.393471,43.6554806]]]]}, "properties" : {"name" : "Mon Sheong Home for the Aged", "other_tags" : {"addr:street": "D'Arcy Street", "addr:postcode": "M5T 1J7", "social_facility": "nursing_home", "addr:housenumber": "36", "social_facility:for": "senior"}, "type" : "Polygon"}}, {"type" : "Feature", "geometry" : {"type":"MultiPolygon","coordinates":[[[[-79.3968456,43.6570257],[-79.3968006,43.6569145],[-79.3967445,43.6567758],[-79.3971636,43.656687],[-79.3973029,43.6566575],[-79.3973437,43.6567585],[-79.3973737,43.6567521],[-79.397391,43.6567948],[-79.3973636,43.6568006],[-79.3973842,43.6568516],[-79.3969945,43.6569342],[-79.3970168,43.6569894],[-79.3968456,43.6570257]]]]}, "properties" : {"name" : "Cecil Transformer Station", "other_tags" : {"power": "substation", "alt_name": "Cecil TS", "operator": "Hydro One", "addr:street": "Cecil Street", "operator:wikidata": "Q3143709", "operator:wikipedia": "en:Hydro One"}, "type" : "Polygon"}}, {"type" : "Feature", "geometry" : {"type":"MultiPolygon","coordinates":[[[[-79.3965462,43.6547149],[-79.3963637,43.654755],[-79.3962714,43.654535],[-79.3964543,43.6544948],[-79.3964678,43.6545272],[-79.3964181,43.6545381],[-79.3964509,43.6546165],[-79.3965004,43.6546056],[-79.3965232,43.65466],[-79.3965462,43.6547149]]]]}, "properties" : {"name" : "First Baptist Church", "other_tags" : {"religion": "christian", "building:colour": "red", "building:levels": "2", "building:material": "brick"}, "type" : "Polygon"}}, {"type" : "Feature", "geometry" : {"type":"MultiPolygon","coordinates":[[[[-79.3973235,43.6594434],[-79.3973966,43.6594286],[-79.3974328,43.6595276],[-79.3972889,43.6595585],[-79.3968972,43.6596427],[-79.3969185,43.6596943],[-79.3968541,43.6597084],[-79.3969841,43.6600352],[-79.3971007,43.6600097],[-79.3971044,43.6600194],[-79.3972847,43.6599818],[-79.3973077,43.6600388],[-79.397295,43.6600414],[-79.3973206,43.6601144],[-79.3971202,43.6601547],[-79.3971329,43.6601814],[-79.3971591,43.6602363],[-79.3971741,43.6602341],[-79.3971812,43.660251],[-79.3971904,43.6602491],[-79.3971939,43.6602574],[-79.3973536,43.6602252],[-79.3973515,43.6602197],[-79.3974474,43.6602008],[-79.3973534,43.6599679],[-79.3973894,43.6599604],[-79.3973408,43.659828],[-79.3980536,43.6596755],[-79.397972,43.6594705],[-79.3979447,43.6594757],[-79.3979401,43.6594631],[-79.397967,43.6594569],[-79.3979518,43.6594186],[-79.3979449,43.6594014],[-79.3978789,43.6592391],[-79.3978489,43.6591596],[-79.397538,43.6592283],[-79.3975353,43.659223],[-79.3975225,43.6592058],[-79.3974956,43.6591853],[-79.3974611,43.6591717],[-79.3974225,43.6591666],[-79.3973836,43.6591703],[-79.3973483,43.6591826],[-79.3973199,43.6592022],[-79.3973166,43.6591928],[-79.3973039,43.6591954],[-79.3973269,43.6592499],[-79.3973143,43.6592519],[-79.3973089,43.6592391],[-79.3972486,43.6592528],[-79.3973235,43.6594434]]]]}, "properties" : {"name" : "Bahen Centre for Information Technology", "other_tags" : {"operator": "University of Toronto", "wikidata": "Q4842527", "addr:city": "Toronto", "wikipedia": "en:Bahen Centre for Information Technology", "addr:street": "St George Street", "building_code": "BA", "addr:housenumber": "40"}, "type" : "Polygon"}}, {"type" : "Feature", "geometry" : {"type":"MultiPolygon","coordinates":[[[[-79.3960109,43.6593031],[-79.3958653,43.6593352],[-79.3958728,43.6593502],[-79.3957989,43.6593693],[-79.3958267,43.6594312],[-79.3957411,43.6594502],[-79.3957853,43.6595564],[-79.3957985,43.659555],[-79.3958064,43.6595697],[-79.3958867,43.6595499],[-79.3959071,43.6596076],[-79.3960346,43.6595822],[-79.3960242,43.659554],[-79.3961211,43.6595313],[-79.3960995,43.6594822],[-79.3961132,43.6594683],[-79.3961004,43.6594278],[-79.3960769,43.6594223],[-79.3960618,43.6593801],[-79.396044,43.6593822],[-79.3960109,43.6593031]]]]}, "properties" : {"name" : "Cumberland House", "other_tags" : {"operator": "University of Toronto", "addr:city": "Toronto", "department": "International Student Centre", "addr:street": "St George Street", "roof:levels": "1", "building:levels": "2", "addr:housenumber": "33"}, "type" : "Polygon"}}, {"type" : "Feature", "geometry" : {"type":"MultiPolygon","coordinates":[[[[-79.39262,43.6531501],[-79.3926537,43.6531432],[-79.3926789,43.6531381],[-79.3927468,43.6531243],[-79.3928325,43.6531065],[-79.3928075,43.6530443],[-79.3929215,43.653021],[-79.3929279,43.6530359],[-79.3932882,43.652961],[-79.3933751,43.6531797],[-79.3933232,43.6531905],[-79.3933297,43.653207],[-79.3933036,43.6532125],[-79.3933186,43.6532501],[-79.3933452,43.6532446],[-79.3934139,43.6534175],[-79.3933716,43.6534263],[-79.3933865,43.6534638],[-79.3934792,43.6534446],[-79.3935808,43.6537004],[-79.3934743,43.6537278],[-79.3934901,43.6537671],[-79.3934981,43.6537876],[-79.3935444,43.6537655],[-79.3935927,43.6537352],[-79.3936303,43.6537061],[-79.3936321,43.6537077],[-79.3935954,43.6537359],[-79.3935458,43.653767],[-79.3934991,43.6537904],[-79.3935035,43.6538017],[-79.3933791,43.6538359],[-79.3931591,43.6538911],[-79.3928425,43.6539655],[-79.3924676,43.6540432],[-79.392155,43.6541039],[-79.3919519,43.6541405],[-79.3919485,43.6541309],[-79.3919213,43.6541231],[-79.3918768,43.6541173],[-79.3918241,43.6541146],[-79.3917668,43.6541168],[-79.3917128,43.6541153],[-79.3916558,43.6541094],[-79.3915863,43.6540994],[-79.3915245,43.6540849],[-79.3915257,43.6540826],[-79.3915873,43.6540973],[-79.3915644,43.6540395],[-79.3916081,43.6540304],[-79.3916099,43.654035],[-79.3916228,43.6540323],[-79.3915901,43.6539501],[-79.3914372,43.6539819],[-79.3914158,43.6539278],[-79.3917383,43.6538608],[-79.3917249,43.6538272],[-79.3919705,43.6537761],[-79.3920881,43.6537516],[-79.3920839,43.653741],[-79.3920664,43.6537446],[-79.3920472,43.6536962],[-79.3919809,43.6535294],[-79.3919603,43.6534775],[-79.3918905,43.6533018],[-79.3919323,43.6532931],[-79.3920523,43.653268],[-79.3920452,43.6532509],[-79.3920897,43.6532418],[-79.3920967,43.653259],[-79.3921485,43.6532482],[-79.3923468,43.6532069],[-79.39262,43.6531501]]]]}, "properties" : {"name" : "Art Gallery of Ontario", "other_tags" : {"phone": "+1 416-979-6648", "stars": "8.4", "museum": "art", "name:fr": "Musée des beaux-arts de l’Ontario", "name:ko": "온타리오 미술관", "website": "https://ago.ca/", "alt_name": "AGO", "wikidata": "Q670250", "addr:city": "Toronto", "wikipedia": "en:Art Gallery of Ontario", "wheelchair": "limited", "addr:street": "Dundas Street West", "museum_type": "regional", "roof:colour": "#d3d3d3", "stars:system": "10 star rating", "addr:postcode": "M5T 1G4", "opening_hours": "Mo off; Tu,Th 10:30-17:00; We,Fr 10:30-21:00; Sa,Su 10:30-17:30", "toilets:access": "customers", "building:levels": "5", "addr:housenumber": "317", "toilets:wheelchair": "designated"}, "type" : "Polygon"}}, {"type" : "Feature", "geometry" : {"type":"MultiPolygon","coordinates":[[[[-79.3903645,43.6536549],[-79.3901128,43.653706],[-79.3899734,43.6533464],[-79.3902251,43.6532953],[-79.3903645,43.6536549]]]]}, "properties" : {"name" : "Village by the Grange 2", "other_tags" : {"layer": "5", "building:levels": "8", "building:min_level": "5"}, "type" : "Polygon"}}, {"type" : "Feature", "geometry" : {"type":"MultiPolygon","coordinates":[[[[-79.3910869,43.6542865],[-79.3913016,43.6542386],[-79.3912016,43.653995],[-79.3910304,43.6540185],[-79.3909784,43.6540227],[-79.3910869,43.6542865]]]]}, "properties" : {"name" : "Rosalie Sharp Pavilion", "other_tags" : {"operator": "OCAD University", "addr:city": "Toronto", "addr:street": "McCaul Street", "building:colour": "maroon", "building:levels": "3", "addr:housenumber": "115"}, "type" : "Polygon"}}, {"type" : "Feature", "geometry" : {"type":"MultiPolygon","coordinates":[[[[-79.3903733,43.6532169],[-79.3901786,43.6532576],[-79.389962,43.6533046],[-79.3898234,43.6529639],[-79.3897968,43.6528984],[-79.3897755,43.6528461],[-79.3899885,43.6527999],[-79.3901867,43.6527585],[-79.3903733,43.6532169]]]]}, "properties" : {"name" : "9T6 Condo Residences", "other_tags" : {"building:levels": "18"}, "type" : "Polygon"}}, {"type" : "Feature", "geometry" : {"type":"MultiPolygon","coordinates":[[[[-79.3903009,43.6519632],[-79.3902144,43.6519817],[-79.3902072,43.6519833],[-79.3901922,43.6519865],[-79.3900839,43.6520098],[-79.3899135,43.6515941],[-79.3901305,43.6515476],[-79.3901562,43.6516103],[-79.3901694,43.6516424],[-79.390276,43.6519025],[-79.3903009,43.6519632]]]]}, "properties" : {"name" : "Village by the Grange", "other_tags" : {"ref": "4", "layer": "1", "building:levels": "5", "building:min_level": "1"}, "type" : "Polygon"}}, {"type" : "Feature", "geometry" : {"type":"MultiPolygon","coordinates":[[[[-79.392178,43.6564784],[-79.3919467,43.6565278],[-79.3917806,43.6561205],[-79.3917277,43.6559907],[-79.3917256,43.6559857],[-79.3919569,43.6559363],[-79.392178,43.6564784]]]]}, "properties" : {"name" : "Elm Place West", "other_tags" : {"operator": "Cherishome Living", "addr:city": "Toronto", "addr:street": "Elm Street", "building:colour": "white", "building:levels": "14", "addr:housenumber": "222"}, "type" : "Polygon"}}, {"type" : "Feature", "geometry" : {"type":"MultiPolygon","coordinates":[[[[-79.3939523,43.658569],[-79.3943257,43.6584864],[-79.394057,43.6578532],[-79.3939347,43.6578793],[-79.3940075,43.6580446],[-79.393455,43.658162],[-79.3932614,43.6581806],[-79.3932725,43.6582542],[-79.3933213,43.6582502],[-79.3933286,43.6582741],[-79.3932696,43.658287],[-79.3932988,43.65836],[-79.3938426,43.6582402],[-79.3938164,43.6581817],[-79.3940424,43.658133],[-79.3941687,43.6584263],[-79.3939169,43.6584763],[-79.3939523,43.658569]]]]}, "properties" : {"name" : "Ronald McDonald House", "other_tags" : {"phone": "+1-416-977-7763", "addr:city": "Toronto", "addr:street": "McCaul Street", "building:colour": "red", "building:levels": "4", "addr:housenumber": "240", "building:material": "brick"}, "type" : "Polygon"}}, {"type" : "Feature", "geometry" : {"type":"MultiPolygon","coordinates":[[[[-79.3985138,43.6534576],[-79.3985053,43.6534594],[-79.3984446,43.6533083],[-79.3984367,43.6532887],[-79.3984459,43.6532868],[-79.3988053,43.6532112],[-79.3989205,43.653187],[-79.3989294,43.6532091],[-79.3989442,43.6532459],[-79.3988905,43.6532572],[-79.3989165,43.6533221],[-79.3987331,43.6533606],[-79.3987519,43.6534075],[-79.3985138,43.6534576]]]]}, "properties" : {"name" : "W. & H.S. Commercial Building", "other_tags" : {"alt_name": "Sunwise Professional Building", "addr:city": "Toronto", "addr:street": "Spadina Avenue", "building:colour": "grey", "building:levels": "5", "addr:housenumber": "302", "building:material": "concrete"}, "type" : "Polygon"}}, {"type" : "Feature", "geometry" : {"type":"MultiPolygon","coordinates":[[[[-79.398124,43.6549631],[-79.3980691,43.6548243],[-79.3985003,43.654735],[-79.3985458,43.6548502],[-79.3985551,43.6548738],[-79.398124,43.6549631]]]]}, "properties" : {"name" : "LCBO", "other_tags" : {"brand": "LCBO", "opening_hours": "Mo-Sa 10:00-21:00; Su 11:00-18:00", "brand:wikidata": "Q845263", "brand:wikipedia": "en:Liquor Control Board of Ontario"}, "type" : "Polygon"}}, {"type" : "Feature", "geometry" : {"type":"MultiPolygon","coordinates":[[[[-79.3977714,43.6529096],[-79.3976014,43.6529461],[-79.3975874,43.6529119],[-79.3975818,43.6528982],[-79.397547,43.6528134],[-79.3977008,43.6527803],[-79.397717,43.6527768],[-79.3977714,43.6529096]]]]}, "properties" : {"name" : "National Bank", "other_tags" : {"brand": "National Bank", "phone": "+1-416-977-6812", "name:en": "National Bank", "name:fr": "Banque Nationale", "website": "https://www.nbc.ca/", "brand:en": "National Bank", "brand:fr": "Banque Nationale", "addr:city": "Toronto", "addr:street": "Dundas Street West", "addr:postcode": "M5T 1H1", "official_name": "National Bank of Canada", "brand:wikidata": "Q634298", "brand:wikipedia": "en:National Bank of Canada", "building:levels": "1", "addr:housenumber": "501", "official_name:en": "National Bank of Canada", "official_name:fr": "Banque Nationale du Canada"}, "type" : "Polygon"}}, {"type" : "Feature", "geometry" : {"type":"MultiPolygon","coordinates":[[[[-79.4036024,43.6571407],[-79.4035619,43.6570349],[-79.4035473,43.6569966],[-79.403533,43.6569593],[-79.4035027,43.6568799],[-79.4035998,43.6568605],[-79.4036441,43.6569763],[-79.4036588,43.6570146],[-79.4036996,43.6571213],[-79.4036024,43.6571407]]]]}, "properties" : {"name" : "The Planet Traveler", "other_tags" : {"website": "https://theplanettraveler.com/", "addr:city": "Toronto", "addr:street": "College Street", "building:levels": "5", "addr:housenumber": "357"}, "type" : "Polygon"}}, {"type" : "Feature", "geometry" : {"type":"MultiPolygon","coordinates":[[[[-79.4024048,43.6573679],[-79.4023643,43.6572604],[-79.4024509,43.6572422],[-79.4024914,43.6573502],[-79.4024048,43.6573679]]]]}, "properties" : {"name" : "Budget", "other_tags" : {"brand": "Budget", "operator": "Budget", "official_name": "Budget Rent a Car", "brand:wikidata": "Q1001437", "brand:wikipedia": "en:Budget Rent a Car"}, "type" : "Polygon"}}, {"type" : "Feature", "geometry" : {"type":"MultiPolygon","coordinates":[[[[-79.4035695,43.656865],[-79.4034302,43.6568909],[-79.4034229,43.6568704],[-79.4032782,43.6568973],[-79.4032855,43.6569179],[-79.4031492,43.6569433],[-79.4031433,43.6569266],[-79.4031303,43.6569291],[-79.4031188,43.6568964],[-79.4031312,43.6568941],[-79.4031183,43.6568576],[-79.4031043,43.6568602],[-79.4030954,43.6568351],[-79.4031031,43.6568337],[-79.4030962,43.6568144],[-79.4032484,43.6567859],[-79.4032538,43.6568013],[-79.4032911,43.6567944],[-79.4032887,43.6567876],[-79.4033407,43.656778],[-79.403343,43.6567843],[-79.403395,43.6567747],[-79.4033902,43.6567593],[-79.40352,43.6567347],[-79.4035267,43.6567536],[-79.4035408,43.656751],[-79.4035509,43.6567793],[-79.4035407,43.6567812],[-79.4035526,43.6568147],[-79.4035616,43.656813],[-79.4035722,43.656843],[-79.4035623,43.6568448],[-79.4035695,43.656865]]]]}, "properties" : {"name" : "College Backpackers Inn", "other_tags" : {"smoking": "no", "website": "https://www.collegebackpackers.ca/", "addr:city": "Toronto", "addr:street": "Augusta Avenue", "addr:postcode": "M5T 2L9", "building:levels": "4", "internet_access": "wlan", "addr:housenumber": "280", "building:material": "concrete", "internet_access:fee": "no"}, "type" : "Polygon"}}, {"type" : "Feature", "geometry" : {"type":"MultiPolygon","coordinates":[[[[-79.4049298,43.656625],[-79.4046509,43.6566802],[-79.4046579,43.6566987],[-79.4046717,43.6567354],[-79.404694,43.6567942],[-79.4047221,43.6567886],[-79.4047287,43.6568061],[-79.4047354,43.656824],[-79.4046685,43.6568372],[-79.4046787,43.6568644],[-79.4046885,43.6568903],[-79.4047008,43.6569226],[-79.4047514,43.6569126],[-79.4047445,43.6568953],[-79.4048993,43.6568646],[-79.4048806,43.6568151],[-79.4048736,43.6567966],[-79.4049862,43.6567744],[-79.4049298,43.656625]]]]}, "properties" : {"name" : "Toronto Fire Station 315", "other_tags" : {"wikidata": "Q111490760", "addr:city": "Toronto", "addr:street": "Bellevue Avenue", "addr:housenumber": "132", "building:material": "brick"}, "type" : "Polygon"}}, {"type" : "Feature", "geometry" : {"type":"MultiPolygon","coordinates":[[[[-79.3908094,43.6543475],[-79.3905863,43.6543968],[-79.3905788,43.6543793],[-79.3905405,43.654386],[-79.3905104,43.6544],[-79.3904755,43.6544057],[-79.3904401,43.6544026],[-79.3904082,43.6543908],[-79.3903837,43.654372],[-79.3903699,43.6543433],[-79.3903633,43.6543225],[-79.3903462,43.6542651],[-79.3903276,43.6542685],[-79.3902407,43.6540523],[-79.3902788,43.6540454],[-79.3905431,43.6539865],[-79.3906955,43.6539583],[-79.3906426,43.65383],[-79.3905559,43.6536198],[-79.3903789,43.6536557],[-79.3902247,43.6532657],[-79.3903937,43.6532268],[-79.3903642,43.6531521],[-79.390562,43.6531063],[-79.3906451,43.6530867],[-79.390671,43.6530806],[-79.3907491,43.6530629],[-79.3908108,43.653222],[-79.3908268,43.6532152],[-79.3908899,43.6533802],[-79.3909033,43.6533753],[-79.3909677,43.6535344],[-79.3908736,43.653555],[-79.3908473,43.6535607],[-79.3907813,43.6535752],[-79.3907914,43.653599],[-79.3908014,43.6536227],[-79.3908653,43.6536083],[-79.3908921,43.6536022],[-79.3909905,43.65358],[-79.3909939,43.6535882],[-79.3910884,43.6538139],[-79.3911474,43.6539546],[-79.3909652,43.6539997],[-79.3909315,43.654008],[-79.3907665,43.6540196],[-79.3907289,43.6540235],[-79.3907889,43.6541651],[-79.3907375,43.65418],[-79.3907704,43.6542566],[-79.3908094,43.6543475]]]]}, "properties" : {"name" : "Village by the Grange", "other_tags" : {"addr:city": "Toronto", "addr:street": "Dundas Street West", "building:levels": "9", "addr:housenumber": "275", "building:material": "brick"}, "type" : "Polygon"}}, {"type" : "Feature", "geometry" : {"type":"MultiPolygon","coordinates":[[[[-79.3910665,43.6525418],[-79.3909423,43.6525686],[-79.3909393,43.6525612],[-79.3908738,43.6525753],[-79.3908285,43.6524653],[-79.3909125,43.6524472],[-79.390908,43.6524363],[-79.3910136,43.6524135],[-79.3910665,43.6525418]]]]}, "properties" : {"name" : "Above Ground Art Supplies", "other_tags" : {"website": "https://www.abovegroundartsupplies.com/cms/index.php", "addr:city": "Toronto", "check_date": "2023-07-18", "addr:street": "McCaul Street", "addr:postcode": "M5T 3K2", "opening_hours": "Mo-Fr 08:30-19:30; Sa 10:00-18:00; Su 12:00-17:00", "building:colour": "green", "building:levels": "2", "addr:housenumber": "74", "building:material": "brick"}, "type" : "Polygon"}}, {"type" : "Feature", "geometry" : {"type":"MultiPolygon","coordinates":[[[[-79.3901305,43.6515476],[-79.3899135,43.6515941],[-79.3900839,43.6520098],[-79.3901922,43.6519865],[-79.3902072,43.6519833],[-79.3901886,43.6519371],[-79.3901591,43.6519284],[-79.3901148,43.651907],[-79.3900947,43.6518779],[-79.3900759,43.6518391],[-79.3900638,43.6518003],[-79.3900612,43.6517731],[-79.3900652,43.6517295],[-79.3900786,43.6516965],[-79.3901054,43.6516586],[-79.3901562,43.6516103],[-79.3901305,43.6515476]]]]}, "properties" : {"name" : "Inclusive Design Institute", "other_tags" : {"alt_name": "Open Gallery", "operator": "OCAD University", "addr:city": "Toronto", "wheelchair": "yes", "addr:street": "McCaul Street", "building:levels": "1", "addr:housenumber": "49"}, "type" : "Polygon"}}, {"type" : "Feature", "geometry" : {"type":"MultiPolygon","coordinates":[[[[-79.3901694,43.6516424],[-79.3901326,43.6516809],[-79.3901084,43.6517149],[-79.3901004,43.6517513],[-79.3901064,43.6517974],[-79.3901192,43.6518362],[-79.3901366,43.6518692],[-79.3901668,43.65189],[-79.390203,43.6519065],[-79.3902452,43.6519085],[-79.390276,43.6519025],[-79.3901694,43.6516424]]]]}, "properties" : {"name" : "OCAD Student Centre", "other_tags" : {"ref": "5", "operator": "OCAD University", "addr:city": "Toronto", "addr:street": "McCaul Street", "building:levels": "1", "addr:housenumber": "51"}, "type" : "Polygon"}}, {"type" : "Feature", "geometry" : {"type":"MultiPolygon","coordinates":[[[[-79.3913596,43.6537807],[-79.3909966,43.6529142],[-79.3915008,43.6528065],[-79.391672,43.6532103],[-79.3918332,43.6531773],[-79.3918302,43.6531686],[-79.3919623,43.6531421],[-79.3919653,43.6531506],[-79.3921421,43.6531153],[-79.3921837,43.6532223],[-79.3920897,43.6532418],[-79.3920452,43.6532509],[-79.3917136,43.6533188],[-79.3918665,43.6536778],[-79.3913596,43.6537807]]]]}, "properties" : {"name" : "Main Building", "other_tags" : {"ref": "0", "name:ko": "메인 빌딩", "website": "https://www.ocadu.ca/", "operator": "OCAD University", "addr:city": "Toronto", "addr:street": "McCaul Street", "addr:postcode": "M5T 1W1", "addr:housename": "Main Building", "building:levels": "4", "addr:housenumber": "100"}, "type" : "Polygon"}}, {"type" : "Feature", "geometry" : {"type":"MultiPolygon","coordinates":[[[[-79.3909184,43.6543246],[-79.3909787,43.654312],[-79.3908661,43.6540459],[-79.3908127,43.6540542],[-79.3909184,43.6543246]]]]}, "properties" : {"name" : "285 Dundas Street West", "other_tags" : {"phone": "+1-416-977-6000x2321", "website": "https://www.ocadu.ca/programs/continuing_studies.htm", "alt_name": "Office of Continuing Studies", "operator": "OCAD University", "addr:city": "Toronto", "addr:street": "Dundas Street West", "addr:housenumber": "285"}, "type" : "Polygon"}}, {"type" : "Feature", "geometry" : {"type":"MultiPolygon","coordinates":[[[[-79.3903731,43.6536601],[-79.3901089,43.6537154],[-79.390034,43.6535239],[-79.389964,43.6533447],[-79.3902269,43.6532904],[-79.3903731,43.6536601]]]]}, "properties" : {"name" : "Annex Building", "other_tags" : {"ref": "1", "operator": "OCAD University", "addr:city": "Toronto", "addr:street": "McCaul Street", "building:levels": "5", "addr:housenumber": "113"}, "type" : "Polygon"}}, {"type" : "Feature", "geometry" : {"type":"MultiPolygon","coordinates":[[[[-79.4046906,43.65288],[-79.4048115,43.6531941],[-79.404738,43.6532102],[-79.4047675,43.653285],[-79.4046689,43.6533058],[-79.4046374,43.6532301],[-79.4045617,43.6532444],[-79.4044408,43.6529303],[-79.4046906,43.65288]]]]}, "properties" : {"name" : "Toronto Western Hospital Heating Plant", "other_tags" : null, "type" : "Polygon"}}, {"type" : "Feature", "geometry" : {"type":"MultiPolygon","coordinates":[[[[-79.4060015,43.6525846],[-79.4056566,43.6526594],[-79.4056342,43.6526051],[-79.4057385,43.6525825],[-79.4057605,43.6525777],[-79.4057264,43.6524953],[-79.4059476,43.6524482],[-79.4059744,43.6525159],[-79.4060015,43.6525846]]]]}, "properties" : {"name" : "COVID Assessment Centre", "other_tags" : {"healthcare": "sample_collection"}, "type" : "Polygon"}}, {"type" : "Feature", "geometry" : {"type":"MultiPolygon","coordinates":[[[[-79.395111,43.6571873],[-79.394683,43.6572792],[-79.3946435,43.6571828],[-79.3950714,43.6570909],[-79.395111,43.6571873]]]]}, "properties" : {"name" : "Gallery Loft Towns", "other_tags" : {"phone": "+1-416-929-5264", "website": "http://www.gallerylofttowns.com/"}, "type" : "Polygon"}}, {"type" : "Feature", "geometry" : {"type":"MultiPolygon","coordinates":[[[[-79.3913132,43.6585539],[-79.3913852,43.6587207],[-79.3913878,43.6587267],[-79.391392,43.6587257],[-79.3913938,43.6587298],[-79.3915104,43.6587034],[-79.3914129,43.6584775],[-79.3912988,43.6585033],[-79.3913174,43.6585464],[-79.3913107,43.6585479],[-79.3913132,43.6585539]]]]}, "properties" : {"name" : "Toronto Transit Commission Orde Substation", "other_tags" : {"power": "substation", "operator": "Toronto Transit Commission", "attribution": "Natural Resources Canada"}, "type" : "Polygon"}}, {"type" : "Feature", "geometry" : {"type":"MultiPolygon","coordinates":[[[[-79.3927468,43.6531243],[-79.3926789,43.6531381],[-79.3926537,43.6531432],[-79.39262,43.6531501],[-79.3926175,43.6531436],[-79.3925491,43.6531572],[-79.3923128,43.6532049],[-79.3922654,43.6530842],[-79.3923463,43.6530672],[-79.392341,43.6530551],[-79.3923628,43.6530504],[-79.3923576,43.6530378],[-79.39239,43.6530308],[-79.3923953,43.6530433],[-79.3924168,43.6530388],[-79.3924218,43.6530512],[-79.3924992,43.6530349],[-79.3925097,43.653059],[-79.3925931,43.6530409],[-79.3926128,43.6530851],[-79.3927214,43.6530623],[-79.3927468,43.6531243]]]]}, "properties" : {"name" : "The Grange", "other_tags" : {"height": "0.1", "wikidata": "Q7737530", "wikipedia": "en:The Grange", "roof:colour": "grey", "building:levels": "2", "building:material": "brick"}, "type" : "Polygon"}}, {"type" : "Feature", "geometry" : {"type":"MultiPolygon","coordinates":[[[[-79.4022259,43.657404],[-79.401902,43.6574721],[-79.4017601,43.657119],[-79.4018115,43.6571082],[-79.4017454,43.6569437],[-79.4018369,43.6569245],[-79.4018114,43.6568612],[-79.4016907,43.6568866],[-79.4016841,43.6568703],[-79.4015599,43.6568965],[-79.4015325,43.6568282],[-79.4015241,43.6568073],[-79.4014317,43.6568268],[-79.4012913,43.6564774],[-79.4017409,43.6563829],[-79.4018061,43.656545],[-79.4014823,43.6566131],[-79.4014906,43.6566336],[-79.4015208,43.6566273],[-79.4015482,43.6566954],[-79.4015176,43.6567018],[-79.4015277,43.6567269],[-79.4015548,43.6567212],[-79.4015524,43.6567152],[-79.4016159,43.6567019],[-79.4016183,43.6567077],[-79.4016483,43.6567014],[-79.4016543,43.6567163],[-79.4016835,43.6567101],[-79.4016814,43.6567049],[-79.4017764,43.6566849],[-79.4017848,43.6567058],[-79.4018458,43.656693],[-79.4018753,43.6567664],[-79.4019006,43.6567611],[-79.4019663,43.6569245],[-79.4019805,43.6569599],[-79.4018907,43.6569788],[-79.401912,43.6570319],[-79.4020629,43.6570002],[-79.4021255,43.657156],[-79.401932,43.6571967],[-79.4019654,43.6572796],[-79.4021441,43.657242],[-79.4021716,43.6573104],[-79.402187,43.6573072],[-79.4022259,43.657404]]]]}, "properties" : {"name" : "Kensington Manor", "other_tags" : {"operator": "Toronto Community Housing", "addr:street": "Oxford Street", "building:colour": "red", "building:levels": "4", "addr:housenumber": "34", "building:material": "brick"}, "type" : "Polygon"}}, {"type" : "Feature", "geometry" : {"type":"MultiPolygon","coordinates":[[[[-79.3999052,43.6569338],[-79.400231,43.6568664],[-79.4001602,43.6566873],[-79.3998344,43.6567547],[-79.3999052,43.6569338]]]]}, "properties" : {"name" : "Kwong Fat Hong Building", "other_tags" : {"addr:street": "Spadina Avenue", "addr:housenumber": "438"}, "type" : "Polygon"}}, {"type" : "Feature", "geometry" : {"type":"MultiPolygon","coordinates":[[[[-79.3942974,43.6532082],[-79.394224,43.6530283],[-79.394025,43.6530709],[-79.3940398,43.6531072],[-79.3938674,43.6531441],[-79.3939153,43.6532614],[-79.3939991,43.6532435],[-79.3940085,43.6532665],[-79.3941608,43.653234],[-79.3941402,43.6531836],[-79.394171,43.6531649],[-79.3941953,43.6532283],[-79.3942974,43.6532082]]]]}, "properties" : {"name" : "Deep Quong Manor", "other_tags" : {"addr:street": "Beverley Street", "addr:housenumber": "106"}, "type" : "Polygon"}}, {"type" : "Feature", "geometry" : {"type":"MultiPolygon","coordinates":[[[[-79.3989881,43.6540608],[-79.3987566,43.6541096],[-79.3988087,43.6542392],[-79.3989078,43.6542183],[-79.3989157,43.654238],[-79.3989716,43.6542262],[-79.398966,43.6542123],[-79.399081,43.6541881],[-79.3990894,43.6542089],[-79.3993444,43.6541552],[-79.3992816,43.653999],[-79.3989881,43.6540608]]]]}, "properties" : {"name" : "Scott Mission", "other_tags" : null, "type" : "Polygon"}}, {"type" : "Feature", "geometry" : {"type":"MultiPolygon","coordinates":[[[[-79.4005977,43.6542684],[-79.4011636,43.6541559],[-79.4011952,43.6542365],[-79.400961,43.6542852],[-79.4006291,43.654352],[-79.4005977,43.6542684]]]]}, "properties" : {"name" : "Kensington Mall", "other_tags" : {"addr:city": "Toronto", "addr:street": "Kensington Avenue", "addr:postcode": "M5T 2K1", "building:part": "yes", "building:levels": "1", "addr:housenumber": "58"}, "type" : "Polygon"}}, {"type" : "Feature", "geometry" : {"type":"MultiPolygon","coordinates":[[[[-79.407836,43.6582196],[-79.4082273,43.6581364],[-79.4081829,43.6580274],[-79.4077917,43.6581105],[-79.407836,43.6582196]]]]}, "properties" : {"name" : "St. Moses & St. Katherine Coptic Orthodox Church", "other_tags" : {"religion": "christian", "denomination": "coptic_orthodox", "building:material": "brick"}, "type" : "Polygon"}}, {"type" : "Feature", "geometry" : {"type":"MultiPolygon","coordinates":[[[[-79.3951545,43.6559557],[-79.3949513,43.6559946],[-79.3948946,43.6558395],[-79.3951652,43.6557877],[-79.3952088,43.6559067],[-79.3951413,43.6559196],[-79.3951545,43.6559557]]]]}, "properties" : {"name" : "George Brown House", "other_tags" : {"name:en": "George Brown House", "name:fr": "Maison George Brown", "wikidata": "Q5537330", "wikipedia": "en:George Brown House (Toronto)", "building:colour": "red", "building:levels": "3", "building:material": "brick"}, "type" : "Polygon"}}, {"type" : "Feature", "geometry" : {"type":"MultiPolygon","coordinates":[[[[-79.4029062,43.653899],[-79.402837,43.6537282],[-79.4029937,43.6536949],[-79.403063,43.6538658],[-79.4029062,43.653899]]]]}, "properties" : {"name" : "First Russian Congregation - The Kiever Shul", "other_tags" : {"phone": "+1-416-593-9702", "website": "http://kievershul.com/", "religion": "jewish", "wikidata": "Q6405720", "addr:city": "Toronto", "wikipedia": "en:Kiever Synagogue", "addr:street": "Bellevue Avenue", "denomination": "jewish", "addr:housenumber": "25"}, "type" : "Polygon"}}, {"type" : "Feature", "geometry" : {"type":"MultiPolygon","coordinates":[[[[-79.4077537,43.6555496],[-79.4076377,43.6552638],[-79.4078528,43.6552181],[-79.4079688,43.6555039],[-79.4077537,43.6555496]]]]}, "properties" : {"name" : "The Beer Store", "other_tags" : {"brand": "The Beer Store", "brand:wikidata": "Q16243674", "brand:wikipedia": "en:The Beer Store"}, "type" : "Polygon"}}, {"type" : "Feature", "geometry" : {"type":"MultiPolygon","coordinates":[[[[-79.4078139,43.6551331],[-79.4073418,43.6552334],[-79.4069493,43.6542668],[-79.4069188,43.6541916],[-79.4073909,43.6540912],[-79.4078139,43.6551331]]]]}, "properties" : {"name" : "Bathurst College Centre", "other_tags" : {"operator": "Riocan", "building:colour": "red", "building:levels": "4", "building:material": "brick"}, "type" : "Polygon"}}, {"type" : "Feature", "geometry" : {"type":"MultiPolygon","coordinates":[[[[-79.3994718,43.6545589],[-79.3994005,43.6543753],[-79.3995416,43.6543466],[-79.3996129,43.6545303],[-79.3994718,43.6545589]]]]}, "properties" : {"name" : "Anshei Minsk Synagogue", "other_tags" : {"phone": "+1-647-727-6909", "website": "https://www.theminsk.com/", "religion": "jewish", "wikidata": "Q4770667", "addr:city": "Toronto", "wikipedia": "en:Anshei Minsk", "addr:street": "St. Andrew Street", "addr:postcode": "M5T 1K6", "addr:housenumber": "10"}, "type" : "Polygon"}}, {"type" : "Feature", "geometry" : {"type":"MultiPolygon","coordinates":[[[[-79.4074304,43.6563791],[-79.4072109,43.6564245],[-79.4071157,43.656184],[-79.4073353,43.6561385],[-79.4074304,43.6563791]]]]}, "properties" : {"name" : "RBC", "other_tags" : {"atm": "yes", "brand": "RBC", "level": "1", "branch": "College and Bathurst", "website": "http://www.rbcroyalbank.com/", "addr:city": "Toronto", "wheelchair": "yes", "addr:street": "College Street", "official_name": "Royal Bank of Canada", "brand:wikidata": "Q735261", "brand:wikipedia": "en:Royal Bank of Canada", "addr:housenumber": "429", "opening_hours:covid19": "9:30 to 5 Mo-Th, 9:30 to 6 Fr 9"}, "type" : "Polygon"}}, {"type" : "Feature", "geometry" : {"type":"MultiPolygon","coordinates":[[[[-79.3983639,43.6521047],[-79.3979988,43.6521843],[-79.3979758,43.6521292],[-79.3982456,43.6520703],[-79.3983409,43.6520495],[-79.3983639,43.6521047]]]]}, "properties" : {"name" : "Goldstone Noodle Chinese Restauraunt", "other_tags" : {"phone": "+1-416-596-9053", "cuisine": "chinese", "addr:city": "Toronto", "addr:street": "Spadina Avenue", "addr:postcode": "M5T 2E4", "building:levels": "2", "addr:housenumber": "266"}, "type" : "Polygon"}}, {"type" : "Feature", "geometry" : {"type":"MultiPolygon","coordinates":[[[[-79.4017771,43.6575134],[-79.4016025,43.6570763],[-79.4015907,43.6570467],[-79.4015691,43.6570023],[-79.4015596,43.6569811],[-79.4013926,43.6570179],[-79.4010784,43.657084],[-79.4010878,43.6571067],[-79.4011605,43.6572943],[-79.401316,43.6573416],[-79.4013264,43.6573665],[-79.4014142,43.6575884],[-79.4014631,43.6575781],[-79.4017771,43.6575134]]]]}, "properties" : {"name" : "The College Condominium at Spadina", "other_tags" : null, "type" : "Polygon"}}, {"type" : "Feature", "geometry" : {"type":"MultiPolygon","coordinates":[[[[-79.3940492,43.6589307],[-79.3939737,43.6587478],[-79.3938068,43.6587838],[-79.3938824,43.6589668],[-79.3940293,43.658935],[-79.3940492,43.6589307]]]]}, "properties" : {"name" : "Centre for Addiction and Mental Health (CAMH) Nicotine Dependence Clinic", "other_tags" : {"phone": "+1-416-535-8501", "smoking": "no", "website": "https://www.nicotinedependenceclinic.com/English/Pages/Home.aspx", "addr:city": "Toronto", "wheelchair": "yes", "addr:street": "College Street", "addr:postcode": "M5T 1P7", "building:colour": "white", "building:levels": "2", "addr:housenumber": "175"}, "type" : "Polygon"}}, {"type" : "Feature", "geometry" : {"type":"MultiPolygon","coordinates":[[[[-79.3934017,43.6603481],[-79.3933859,43.6603006],[-79.3935323,43.6602653],[-79.3934697,43.6600827],[-79.3933905,43.6601001],[-79.3932437,43.6597496],[-79.3931758,43.6597645],[-79.3931673,43.6597425],[-79.3931063,43.6597571],[-79.3930712,43.6597644],[-79.3930745,43.6597717],[-79.3930067,43.6597891],[-79.3930293,43.6598458],[-79.3932515,43.6603834],[-79.3934017,43.6603481]]]]}, "properties" : {"name" : "Rosebrugh Building", "other_tags" : {"wikidata": "Q111598948", "addr:city": "Toronto", "addr:street": "College Street", "roof:levels": "0", "name:etymology": "Thomas Reeve Rosebrugh", "building:levels": "5", "addr:housenumber": "164", "name:etymology:wikidata": "Q47455176"}, "type" : "Polygon"}}, {"type" : "Feature", "geometry" : {"type":"MultiPolygon","coordinates":[[[[-79.4065307,43.6532379],[-79.4064501,43.6530282],[-79.4069052,43.6529366],[-79.4069859,43.6531462],[-79.4065307,43.6532379]]]]}, "properties" : {"name" : "Cardinal Funeral Homes", "other_tags" : {"addr:city": "Toronto", "addr:street": "Bathurst Street", "addr:postcode": "M5T 2S6", "addr:housenumber": "366"}, "type" : "Polygon"}}, {"type" : "Feature", "geometry" : {"type":"MultiPolygon","coordinates":[[[[-79.4066829,43.6533464],[-79.4066507,43.6532628],[-79.4065483,43.6532835],[-79.4065307,43.6532379],[-79.4069859,43.6531462],[-79.4070355,43.6532754],[-79.4066829,43.6533464]]]]}, "properties" : {"name" : "The Foundery Buildings", "other_tags" : {"phone": "+1-416-938-1229", "addr:city": "Toronto", "addr:street": "Bathurst Street", "addr:postcode": "M5T 2S6", "addr:housenumber": "376"}, "type" : "Polygon"}}, {"type" : "Feature", "geometry" : {"type":"MultiPolygon","coordinates":[[[[-79.4008847,43.6546821],[-79.4007635,43.6547067],[-79.4007495,43.6546707],[-79.4007678,43.654667],[-79.4007606,43.6546485],[-79.4007418,43.6546523],[-79.4007274,43.6546151],[-79.4010412,43.6545515],[-79.4010572,43.6545907],[-79.401029,43.6545965],[-79.4010368,43.6546165],[-79.4008722,43.6546498],[-79.4008847,43.6546821]]]]}, "properties" : {"name" : "Kensary", "other_tags" : {"website": "https://kensary.com/", "addr:street": "Kensington Avenue", "addr:housenumber": "75", "cannabis:recreational": "yes"}, "type" : "Polygon"}}, {"type" : "Feature", "geometry" : {"type":"MultiPolygon","coordinates":[[[[-79.4042855,43.6572893],[-79.4044964,43.6572473],[-79.4045771,43.6574598],[-79.4043662,43.6575017],[-79.4042855,43.6572893]]]]}, "properties" : {"name" : "360 College Medical Arts Centre", "other_tags" : {"addr:city": "Toronto", "addr:street": "College Street", "addr:housenumber": "360"}, "type" : "Polygon"}}, {"type" : "Feature", "geometry" : {"type":"MultiPolygon","coordinates":[[[[-79.4056325,43.6570233],[-79.4056899,43.6571686],[-79.4056329,43.6571804],[-79.4055755,43.6570351],[-79.4056325,43.6570233]]]]}, "properties" : {"name" : "Sal's Tattoo", "other_tags" : {"addr:city": "Toronto", "addr:street": "College Street", "payment:cash": "yes", "addr:postcode": "M5T 1S7", "opening_hours": "Mo-Su 12:00-20:00", "addr:housenumber": "390"}, "type" : "Polygon"}}, {"type" : "Feature", "geometry" : {"type":"MultiPolygon","coordinates":[[[[-79.4075315,43.656354],[-79.4075181,43.6563727],[-79.4074366,43.6563885],[-79.4074304,43.6563791],[-79.4073353,43.6561385],[-79.4073213,43.6561027],[-79.4074208,43.6560819],[-79.4075315,43.656354]]]]}, "properties" : {"name" : "Sneaky Dee's", "other_tags" : {"website": "https://sneaky-dees.com/", "wikidata": "Q7547504", "addr:city": "Toronto", "wikipedia": "en:Sneaky Dee's", "wheelchair": "limited", "addr:street": "College Street", "addr:postcode": "M5T 1T1", "building:levels": "2", "addr:housenumber": "431"}, "type" : "Polygon"}}, {"type" : "Feature", "geometry" : {"type":"MultiPolygon","coordinates":[[[[-79.4064341,43.6569117],[-79.4065094,43.6571149],[-79.4062761,43.6571579],[-79.4062592,43.6571054],[-79.4062925,43.6570987],[-79.406236,43.6569519],[-79.4063027,43.6569384],[-79.4062974,43.6569248],[-79.4063591,43.6569123],[-79.4063643,43.6569257],[-79.4064341,43.6569117]]]]}, "properties" : {"name" : "St. George's Lutheran Church", "other_tags" : {"name:de": "Evangelisch-Lutherische St. Georgs-Kirche", "name:en": "St. George's Lutheran Church", "religion": "christian", "addr:street": "College Street", "denomination": "lutheran", "addr:housenumber": "410"}, "type" : "Polygon"}}, {"type" : "Feature", "geometry" : {"type":"MultiPolygon","coordinates":[[[[-79.3932749,43.6519515],[-79.3937177,43.6518584],[-79.3936703,43.6517365],[-79.3932264,43.6518315],[-79.3932513,43.651893],[-79.3932749,43.6519515]]]]}, "properties" : {"name" : "Toronto Chinese Baptist Church", "other_tags" : {"religion": "christian", "wikidata": "Q7826308", "addr:city": "Toronto", "wikipedia": "en:Toronto Chinese Baptist Church", "built_date": "1886", "check_date": "2023-07-18", "start_date": "~1886", "addr:street": "Beverley Street", "denomination": "baptist", "addr:housenumber": "72-74"}, "type" : "Polygon"}}, {"type" : "Feature", "geometry" : {"type":"MultiPolygon","coordinates":[[[[-79.4034666,43.6549037],[-79.403228,43.6549565],[-79.4032098,43.6549134],[-79.4033116,43.6548909],[-79.4033129,43.654894],[-79.4034497,43.6548637],[-79.4034666,43.6549037]]]]}, "properties" : {"name" : "KOS restaurant", "other_tags" : {"email": "kosrestaurant.kensington@gmail.com", "phone": "+1-416-597-6912", "website": "https://www.kosrestaurant.ca/", "addr:city": "Toronto", "addr:street": "Bellevue Avenue", "addr:postcode": "M5T 2N4", "addr:housenumber": "61", "start_date:restaurant": "1975"}, "type" : "Polygon"}}, {"type" : "Feature", "geometry" : {"type":"MultiPolygon","coordinates":[[[[-79.4055116,43.6543796],[-79.4055607,43.6543689],[-79.4055755,43.6544037],[-79.4053414,43.6544523],[-79.4053287,43.6544184],[-79.4053026,43.6544241],[-79.405314,43.6544557],[-79.4050366,43.6545129],[-79.4047928,43.6539041],[-79.4047902,43.6538976],[-79.4052773,43.6537983],[-79.4053461,43.6539673],[-79.4055116,43.6543796]]]]}, "properties" : {"name" : "Krembil Discovery Tower", "other_tags" : null, "type" : "Polygon"}}, {"type" : "Feature", "geometry" : {"type":"MultiPolygon","coordinates":[[[[-79.404702,43.6545207],[-79.4046238,43.6545369],[-79.4044361,43.6545739],[-79.4044099,43.6545031],[-79.4042274,43.6545441],[-79.4042197,43.6545254],[-79.4042046,43.6544878],[-79.4040268,43.6540496],[-79.4044739,43.6539607],[-79.4046503,43.6543946],[-79.4046586,43.654415],[-79.4046718,43.6544471],[-79.4046829,43.6544741],[-79.404702,43.6545207]]]]}, "properties" : {"name" : "Toronto Western Hospital Parking", "other_tags" : {"access": "permissive", "parking": "multi-storey", "surface": "concrete", "addr:city": "Toronto", "addr:street": "Leonard Avenue", "addr:province": "Ontario", "building:levels": "3", "capacity:disabled": "yes"}, "type" : "Polygon"}}, {"type" : "Feature", "geometry" : {"type":"MultiPolygon","coordinates":[[[[-79.4047135,43.6545497],[-79.404702,43.6545207],[-79.4046238,43.6545369],[-79.4046352,43.6545659],[-79.4047135,43.6545497]]]]}, "properties" : {"name" : "Toronto Western Hospital Parking Office", "other_tags" : {"addr:city": "Toronto", "addr:street": "Nassau Street", "addr:province": "Ontario", "building:levels": "1"}, "type" : "Polygon"}}]}
